{"type": "FeatureCollection", "features": [{"type": "Feature", "properties": {"stop_id": "920", "zh": "三聖", "en": "Sam Shing", "line": "505", "code": "SAS"}, "geometry": {"type": "Point", "coordinates": [113.9766734, 22.3825172]}}, {"type": "Feature", "properties": {"stop_id": "265", "zh": "兆麟", "en": "Siu Lun", "line": "505", "code": "SIL"}, "geometry": {"type": "Point", "coordinates": [113.9766408, 22.3854412]}}, {"type": "Feature", "properties": {"stop_id": "270", "zh": "安定", "en": "On Ting", "line": "505", "code": "ONT"}, "geometry": {"type": "Point", "coordinates": [114.2163108, 22.3169772]}}, {"type": "Feature", "properties": {"stop_id": "280", "zh": "市中心", "en": "Town Centre", "line": "505", "code": "TOC"}, "geometry": {"type": "Point", "coordinates": [114.1893998, 22.3824301]}}, {"type": "Feature", "properties": {"stop_id": "295", "zh": "屯門", "en": "Tuen Mun", "line": "505", "code": "TML"}, "geometry": {"type": "Point", "coordinates": [113.973007, 22.3948714]}}, {"type": "Feature", "properties": {"stop_id": "60", "zh": "建安", "en": "Kin On", "line": "505", "code": "KIO"}, "geometry": {"type": "Point", "coordinates": [114.2328933, 22.3230299]}}, {"type": "Feature", "properties": {"stop_id": "190", "zh": "山景(南)", "en": "Shan King (South)", "line": "505", "code": "SKS"}, "geometry": {"type": "Point", "coordinates": [113.9637202, 22.3767978]}}, {"type": "Feature", "properties": {"stop_id": "180", "zh": "山景(北)", "en": "Shan King (North)", "line": "505", "code": "SKN"}, "geometry": {"type": "Point", "coordinates": [113.9659093, 22.4053306]}}, {"type": "Feature", "properties": {"stop_id": "170", "zh": "石排", "en": "Shek Pai", "line": "505", "code": "SHP"}, "geometry": {"type": "Point", "coordinates": [113.9677604, 22.401419]}}, {"type": "Feature", "properties": {"stop_id": "160", "zh": "新圍", "en": "San Wai", "line": "505", "code": "SAW"}, "geometry": {"type": "Point", "coordinates": [114.147507, 22.5079748]}}, {"type": "Feature", "properties": {"stop_id": "150", "zh": "良景", "en": "Leung King", "line": "505", "code": "LEK"}, "geometry": {"type": "Point", "coordinates": [113.9635777, 22.4066682]}}, {"type": "Feature", "properties": {"stop_id": "140", "zh": "田景", "en": "Tin King", "line": "505", "code": "TNK"}, "geometry": {"type": "Point", "coordinates": [113.9663998, 22.4077765]}}, {"type": "Feature", "properties": {"stop_id": "130", "zh": "建生", "en": "Kin Sang", "line": "505", "code": "KIS"}, "geometry": {"type": "Point", "coordinates": [113.9691969, 22.4067647]}}, {"type": "Feature", "properties": {"stop_id": "120", "zh": "青松", "en": "Ching Chung", "line": "505", "code": "CHC"}, "geometry": {"type": "Point", "coordinates": [113.9804947, 22.4100768]}}, {"type": "Feature", "properties": {"stop_id": "110", "zh": "麒麟", "en": "Kei Lun", "line": "505", "code": "KEL"}, "geometry": {"type": "Point", "coordinates": [113.9764566, 22.4107151]}}, {"type": "Feature", "properties": {"stop_id": "100", "zh": "兆康", "en": "Siu Hong", "line": "505", "code": "SHL"}, "geometry": {"type": "Point", "coordinates": [113.9790357, 22.4132666]}}, {"type": "Feature", "properties": {"stop_id": "200", "zh": "鳴琴", "en": "Ming Kum", "line": "505", "code": "MIK"}, "geometry": {"type": "Point", "coordinates": [113.9672954, 22.3971502]}}, {"type": "Feature", "properties": {"stop_id": "1", "zh": "屯門碼頭", "en": "Tuen Mun Ferry Pier", "line": "507", "code": "FEP"}, "geometry": {"type": "Point", "coordinates": [113.9664784, 22.3725605]}}, {"type": "Feature", "properties": {"stop_id": "240", "zh": "兆禧", "en": "Siu Hei", "line": "507", "code": "SHE"}, "geometry": {"type": "Point", "coordinates": [113.9658013, 22.373833]}}, {"type": "Feature", "properties": {"stop_id": "250", "zh": "海皇路", "en": "Hoi Wong Road", "line": "507", "code": "TSP"}, "geometry": {"type": "Point", "coordinates": [113.9703786, 22.3812061]}}, {"type": "Feature", "properties": {"stop_id": "260", "zh": "豐景園", "en": "Goodview Garden", "line": "507", "code": "GOG"}, "geometry": {"type": "Point", "coordinates": [113.973042, 22.3833066]}}, {"type": "Feature", "properties": {"stop_id": "70", "zh": "河田", "en": "Ho Tin", "line": "507", "code": "HOT"}, "geometry": {"type": "Point", "coordinates": [114.1802004, 22.316392]}}, {"type": "Feature", "properties": {"stop_id": "75", "zh": "蔡意橋", "en": "Choy Yee Bridge", "line": "507", "code": "CYB"}, "geometry": {"type": "Point", "coordinates": [113.9743456, 22.4000751]}}, {"type": "Feature", "properties": {"stop_id": "230", "zh": "銀圍", "en": "Ngan Wai", "line": "507", "code": "NGW"}, "geometry": {"type": "Point", "coordinates": [113.9985103, 22.266333]}}, {"type": "Feature", "properties": {"stop_id": "220", "zh": "大興(南)", "en": "Tai Hing (South)", "line": "507", "code": "THS"}, "geometry": {"type": "Point", "coordinates": [114.2088597, 22.3157568]}}, {"type": "Feature", "properties": {"stop_id": "212", "zh": "大興(北)", "en": "Tai Hing (North)", "line": "507", "code": "THN"}, "geometry": {"type": "Point", "coordinates": [114.1973694, 22.2859426]}}, {"type": "Feature", "properties": {"stop_id": "300", "zh": "杯渡", "en": "Pui To", "line": "614P", "code": "PUT"}, "geometry": {"type": "Point", "coordinates": [113.9727265, 22.3943477]}}, {"type": "Feature", "properties": {"stop_id": "310", "zh": "何福堂", "en": "Hoh Fuk Tong", "line": "614P", "code": "HFT"}, "geometry": {"type": "Point", "coordinates": [113.9774708, 22.397437]}}, {"type": "Feature", "properties": {"stop_id": "320", "zh": "新墟", "en": "San Hui", "line": "614P", "code": "SAH"}, "geometry": {"type": "Point", "coordinates": [113.978045, 22.4002799]}}, {"type": "Feature", "properties": {"stop_id": "330", "zh": "景峰", "en": "Prime View", "line": "614P", "code": "PRV"}, "geometry": {"type": "Point", "coordinates": [113.9797336, 22.4031946]}}, {"type": "Feature", "properties": {"stop_id": "340", "zh": "鳳地", "en": "Fung Tei", "line": "614P", "code": "FUT"}, "geometry": {"type": "Point", "coordinates": [114.0330538, 22.443053]}}, {"type": "Feature", "properties": {"stop_id": "50", "zh": "青雲", "en": "Tsing Wun", "line": "615P", "code": "TWN"}, "geometry": {"type": "Point", "coordinates": [113.9674614, 22.3943554]}}, {"type": "Feature", "properties": {"stop_id": "40", "zh": "青山村", "en": "Tsing Shan Tsuen", "line": "615P", "code": "TSS"}, "geometry": {"type": "Point", "coordinates": [113.9671443, 22.3906423]}}, {"type": "Feature", "properties": {"stop_id": "30", "zh": "龍門", "en": "Lung Mun", "line": "615P", "code": "LUM"}, "geometry": {"type": "Point", "coordinates": [113.9650361, 22.3852664]}}, {"type": "Feature", "properties": {"stop_id": "20", "zh": "輕鐵車廠", "en": "Light Rail Depot", "line": "615P", "code": "LRD"}, "geometry": {"type": "Point", "coordinates": [113.9633725, 22.381827]}}, {"type": "Feature", "properties": {"stop_id": "15", "zh": "蝴蝶", "en": "Butterfly", "line": "615P", "code": "BUT"}, "geometry": {"type": "Point", "coordinates": [113.9617393, 22.378144]}}, {"type": "Feature", "properties": {"stop_id": "10", "zh": "美樂", "en": "Melody Garden", "line": "615P", "code": "MEG"}, "geometry": {"type": "Point", "coordinates": [113.9607311, 22.3743067]}}, {"type": "Feature", "properties": {"stop_id": "80", "zh": "澤豐", "en": "Affluence", "line": "610", "code": "AFF"}, "geometry": {"type": "Point", "coordinates": [113.9758783, 22.4035304]}}, {"type": "Feature", "properties": {"stop_id": "90", "zh": "屯門醫院", "en": "Tuen Mun Hospital", "line": "610", "code": "TMH"}, "geometry": {"type": "Point", "coordinates": [113.9758291, 22.4075409]}}, {"type": "Feature", "properties": {"stop_id": "350", "zh": "藍地", "en": "Lam Tei", "line": "610", "code": "LTE"}, "geometry": {"type": "Point", "coordinates": [113.981894, 22.4186987]}}, {"type": "Feature", "properties": {"stop_id": "360", "zh": "泥圍", "en": "Nai Wai", "line": "610", "code": "NAW"}, "geometry": {"type": "Point", "coordinates": [113.9866093, 22.4238581]}}, {"type": "Feature", "properties": {"stop_id": "370", "zh": "鍾屋村", "en": "Chung Uk Tsuen", "line": "610", "code": "CUT"}, "geometry": {"type": "Point", "coordinates": [114.1409357, 22.4541349]}}, {"type": "Feature", "properties": {"stop_id": "380", "zh": "洪水橋", "en": "Hung Shui Kiu", "line": "610", "code": "HSK"}, "geometry": {"type": "Point", "coordinates": [113.9974787, 22.4336604]}}, {"type": "Feature", "properties": {"stop_id": "390", "zh": "塘坊村", "en": "Tong Fong Tsuen", "line": "610", "code": "TOF"}, "geometry": {"type": "Point", "coordinates": [114.0074215, 22.4402476]}}, {"type": "Feature", "properties": {"stop_id": "400", "zh": "屏山", "en": "Ping Shan", "line": "610", "code": "PIS"}, "geometry": {"type": "Point", "coordinates": [114.012039, 22.44288]}}, {"type": "Feature", "properties": {"stop_id": "560", "zh": "水邊圍", "en": "Shui Pin Wai", "line": "610", "code": "SPW"}, "geometry": {"type": "Point", "coordinates": [114.0202344, 22.4444798]}}, {"type": "Feature", "properties": {"stop_id": "570", "zh": "豐年路", "en": "Fung Nin Road", "line": "610", "code": "FNR"}, "geometry": {"type": "Point", "coordinates": [114.0238504, 22.4445292]}}, {"type": "Feature", "properties": {"stop_id": "580", "zh": "康樂路", "en": "Hong Lok Road", "line": "610", "code": "HLR"}, "geometry": {"type": "Point", "coordinates": [114.0325993, 22.4552546]}}, {"type": "Feature", "properties": {"stop_id": "590", "zh": "大棠路", "en": "Tai Tong Road", "line": "610", "code": "TTR"}, "geometry": {"type": "Point", "coordinates": [114.0295529, 22.4444678]}}, {"type": "Feature", "properties": {"stop_id": "600", "zh": "元朗", "en": "Yuen Long", "line": "610", "code": "YLL"}, "geometry": {"type": "Point", "coordinates": [114.0207403, 22.456686]}}, {"type": "Feature", "properties": {"stop_id": "430", "zh": "天水圍", "en": "Tin Shui Wai", "line": "705", "code": "TSL"}, "geometry": {"type": "Point", "coordinates": [114.0070147, 22.4534723]}}, {"type": "Feature", "properties": {"stop_id": "435", "zh": "天慈", "en": "Tin Tsz", "line": "705", "code": "TIT"}, "geometry": {"type": "Point", "coordinates": [114.2261133, 22.4717506]}}, {"type": "Feature", "properties": {"stop_id": "450", "zh": "天湖", "en": "Tin Wu", "line": "705", "code": "TWU"}, "geometry": {"type": "Point", "coordinates": [113.9964671, 22.4611391]}}, {"type": "Feature", "properties": {"stop_id": "455", "zh": "銀座", "en": "Ginza", "line": "705", "code": "GIN"}, "geometry": {"type": "Point", "coordinates": [139.7219814, 35.7613215]}}, {"type": "Feature", "properties": {"stop_id": "500", "zh": "天榮", "en": "Tin Wing", "line": "705", "code": "TWI"}, "geometry": {"type": "Point", "coordinates": [113.9697151, 22.396656]}}, {"type": "Feature", "properties": {"stop_id": "510", "zh": "天悅", "en": "Tin Yuet", "line": "705", "code": "TYU"}, "geometry": {"type": "Point", "coordinates": [114.2299614, 22.3127926]}}, {"type": "Feature", "properties": {"stop_id": "520", "zh": "天秀", "en": "Tin Sau", "line": "705", "code": "TSA"}, "geometry": {"type": "Point", "coordinates": [114.0029634, 22.4655398]}}, {"type": "Feature", "properties": {"stop_id": "530", "zh": "濕地公園", "en": "Wetland Park", "line": "705", "code": "WEP"}, "geometry": {"type": "Point", "coordinates": [114.0025345, 22.4695484]}}, {"type": "Feature", "properties": {"stop_id": "540", "zh": "天恒", "en": "Tin Heng", "line": "705", "code": "THE"}, "geometry": {"type": "Point", "coordinates": [114.0007557, 22.4697292]}}, {"type": "Feature", "properties": {"stop_id": "550", "zh": "天逸", "en": "Tin Yat", "line": "705", "code": "TYA"}, "geometry": {"type": "Point", "coordinates": [114.137083, 22.3747633]}}, {"type": "Feature", "properties": {"stop_id": "480", "zh": "天富", "en": "Tin Fu", "line": "705", "code": "TFU"}, "geometry": {"type": "Point", "coordinates": [114.1802004, 22.316392]}}, {"type": "Feature", "properties": {"stop_id": "468", "zh": "頌富", "en": "Chung Fu", "line": "705", "code": "CHF"}, "geometry": {"type": "Point", "coordinates": [114.1714758, 22.4584898]}}, {"type": "Feature", "properties": {"stop_id": "460", "zh": "天瑞", "en": "Tin Shui", "line": "705", "code": "TSU"}, "geometry": {"type": "Point", "coordinates": [113.9993735, 22.4559333]}}, {"type": "Feature", "properties": {"stop_id": "448", "zh": "樂湖", "en": "Locwood", "line": "705", "code": "LOC"}, "geometry": {"type": "Point", "coordinates": [114.0011415, 22.453036]}}, {"type": "Feature", "properties": {"stop_id": "445", "zh": "天耀", "en": "Tin Yiu", "line": "705", "code": "TIY"}, "geometry": {"type": "Point", "coordinates": [114.0027686, 22.4503875]}}, {"type": "Feature", "properties": {"stop_id": "275", "zh": "友愛", "en": "Yau Oi", "line": "751", "code": "YAO"}, "geometry": {"type": "Point", "coordinates": [113.9735606, 22.3866677]}}, {"type": "Feature", "properties": {"stop_id": "425", "zh": "坑尾村", "en": "Hang Mei Tsuen", "line": "751", "code": "HMT"}, "geometry": {"type": "Point", "coordinates": [114.0056157, 22.4451439]}}, {"type": "Feature", "properties": {"stop_id": "490", "zh": "翠湖", "en": "Chestwood", "line": "751", "code": "CHE"}, "geometry": {"type": "Point", "coordinates": [113.9996008, 22.4596928]}}], "updated": "2026-09-23T18:48:02.365387+00:00"}